satname,norad_id,inclination_deg,eccentricity,mean_motion_rev_per_day,perigee_km,apogee_km,l1,l2
STARLINK-1523,46028,53.0554,0.0001377,15.06397193,546.2665393212837,548.1737826834242,1 46028U 20055B   26044.49385681 -.00000116  00000+0  11139-4 0  9999,2 46028  53.0554 235.2371 0001377  83.2669 276.8477 15.06397193305259
STARLINK-1526,46029,53.0552,0.0001527,15.06397577,546.1614822354841,548.2764859530262,1 46029U 20055C   26043.95571408 -.00002141  00000+0 -12491-3 0  9996,2 46029  53.0552 237.6477 0001527  81.3234 278.7928 15.06397577305163
STARLINK-1555,46032,53.0541,0.0001334,15.06395953,546.3001182859152,548.147804590426,1 46032U 20055F   26044.53808810  .00000225  00000+0  34006-4 0  9991,2 46032  53.0541 235.0384 0001334  78.6040 281.5099 15.06395953305251
STARLINK-1556,46033,53.055,0.0001367,15.06397341,546.2730111403971,548.1664036642014,1 46033U 20055G   26043.98888814  .00000781  00000+0  71351-4 0  9993,2 46033  53.0550 237.5035 0001367  88.2205 271.8941 15.06397341305147
STARLINK-1557,46034,53.0561,0.0001528,15.06399116,546.1560735986441,548.2724609459219,1 46034U 20055H   26044.52334492  .00000896  00000+0  79046-4 0  9999,2 46034  53.0561 235.1065 0001528  82.5001 277.6161 15.06399116305226
STARLINK-1558,46035,53.0545,0.0001707,15.06397679,546.036513265004,548.400829691247,1 46035U 20055J   26044.53071750  .00000373  00000+0  43933-4 0  9992,2 46035  53.0545 235.0715 0001707 109.2719 250.8455 15.06397679305256
STARLINK-1560,46036,53.055,0.0001348,15.06407248,546.2558099600838,548.1228779424137,1 46036U 20055K   26043.98520743  .00002524  00000+0  18823-3 0  9991,2 46036  53.0550 237.5201 0001348  88.7682 271.3461 15.06407248305171
STARLINK-1567,46038,53.0558,0.000157,15.06394395,546.1414540886426,548.316018929906,1 46038U 20055M   26043.79721790  .00000115  00000+0  26629-4 0  9995,2 46038  53.0558 238.3658 0001570  79.4807 280.6359 15.06394395305132
STARLINK-1569,46039,53.0555,0.0001543,15.0637908,546.2070842914427,548.3442666430919,1 46039U 20055N   26044.53439551  .00001229  00000+0  10145-3 0  9992,2 46039  53.0555 235.0538 0001543  95.3935 264.7230 15.06379080305247
STARLINK-1582,46043,53.0555,0.0001313,15.06398593,546.3065713621327,548.1251690258459,1 46043U 20055S   26043.94465232 -.00000384  00000+0 -68555-5 0  9999,2 46043  53.0555 237.7031 0001313  78.3903 281.7233 15.06398593305152
STARLINK-1591,46045,53.0557,0.0001522,15.06392647,546.1800524354258,548.2881353964149,1 46045U 20055U   26043.97045896  .00000639  00000+0  61815-4 0  9996,2 46045  53.0557 237.5872 0001522  86.3268 273.7895 15.06392647305140
STARLINK-1524,46047,53.0653,3.27e-05,15.09787961,536.6212476224464,537.0734876000879,1 46047U 20055W   26044.58334490  .00062316  00000+0  37990-2 0  9992,2 46047  53.0653 224.8193 0000327 173.2844 175.8605 15.09787961  5689
STARLINK-1527,46048,53.0545,0.0001433,15.06399223,546.2215365427865,548.2063421219982,1 46048U 20055X   26044.51689102  .00000186  00000+0  31404-4 0  9992,2 46048  53.0545 225.1322 0001433  88.0923 272.0230 15.06399223305367
STARLINK-1540,46051,53.0669,0.0002457,15.10099307,534.1980883319084,537.595644573883,1 46051U 20055AA  26044.58334490  .00057548  00000+0  34820-2 0  9997,2 46051  53.0669 224.8142 0002457  98.6714  93.6807 15.10099307  5680
STARLINK-1541,46052,53.0767,0.0001317,15.12069431,528.9800960020602,530.7996702830796,1 46052U 20055AB  26044.58334490  .00027501  00000+0  15914-2 0  9997,2 46052  53.0767 224.7461 0001317 140.5674 169.3640 15.12069431  5738
STARLINK-1543,46053,53.0648,0.0001902,15.09715739,535.7526272297428,538.3831711733992,1 46053U 20055AC  26044.58334490  .00023269  00000+0  14403-2 0  9997,2 46053  53.0648 224.8189 0001902 108.2310 142.4103 15.09715739  5688
STARLINK-1548,46054,53.0672,0.0002339,15.10260847,533.7867561247394,537.0209105265685,1 46054U 20055AD  26044.58334490  .00026265  00000+0  15987-2 0  9995,2 46054  53.0672 224.8067 0002339 103.0522 113.1910 15.10260847  5682
STARLINK-1554,46055,53.0681,0.0001517,15.10212884,534.5014047512686,536.5990174511171,1 46055U 20055AE  26044.58334490  .00026454  00000+0  16122-2 0  9998,2 46055  53.0681 224.8026 0001517 143.4342 155.2442 15.10212884  5497
STARLINK-1564,46058,53.0655,0.0001784,15.09905442,535.2551049297881,537.7222433703255,1 46058U 20055AH  26044.58334490  .00023809  00000+0  14655-2 0  9991,2 46058  53.0655 225.2784 0001784 105.6521 126.6353 15.09905442  5830
STARLINK-1570,46059,53.0552,0.0001432,15.06399847,546.2203168806354,548.2037368419278,1 46059U 20055AJ  26044.50583251  .00000442  00000+0  48588-4 0  9997,2 46059  53.0552 225.1839 0001432  81.1240 278.9911 15.06399847305346
STARLINK-1572,46060,53.0627,0.0001207,15.09084092,538.1624998165416,539.8322960602045,1 46060U 20055AK  26044.58334490  .00023218  00000+0  14622-2 0  9992,2 46060  53.0627 224.8224 0001207  85.2151   2.1934 15.09084092  5784
STARLINK-1573,46061,53.0582,0.0001858,15.06408878,545.8976235740674,548.4710729870876,1 46061U 20055AL  26043.96768867  .00002445  00000+0  18292-3 0  9990,2 46061  53.0582 227.6421 0001858  67.1491 292.9694 15.06408878305305
STARLINK-1577,46063,53.0557,0.0001467,15.06927491,544.5796340713123,546.6110571415138,1 46063U 20055AN  26044.52370203  .00064913  00000+0  42756-2 0  9997,2 46063  53.0557 225.0962 0001467  56.4004 303.7125 15.06927491305383
STARLINK-1583,46064,53.0566,0.000198,15.06591359,545.2540293397778,547.9962351441454,1 46064U 20055AP  26044.49088485  .00024182  00000+0  16283-2 0  9992,2 46064  53.0566 225.2482 0001980  47.0539 313.0616 15.06591359305381
STARLINK-1525,46066,53.0556,0.000122,15.06398425,546.3714919776612,548.0612782036224,1 46066U 20055AR  26043.95847186  .00002361  00000+0  17734-3 0  9993,2 46066  53.0556 207.6394 0001220  97.3466 262.7662 15.06398425305573
STARLINK-1536,46070,53.0571,0.0001826,15.06411302,545.9123568309951,548.4414814742704,1 46070U 20055AV  26044.40076745  .00000527  00000+0  54258-4 0  9999,2 46070  53.0571 205.6613 0001826  36.9361 323.1753 15.06411302305654
STARLINK-1542,46073,53.0568,0.0001261,15.06370028,546.4301212877381,548.1767173614908,1 46073U 20055AY  26044.45978921 -.00004752  00000+0 -30058-3 0  9991,2 46073  53.0568 205.3868 0001261 102.3854 257.7277 15.06370028305652
STARLINK-1549,46074,53.0562,0.0001307,15.06397335,546.3145816674287,548.1248699155503,1 46074U 20055AZ  26044.44501515 -.00001502  00000+0 -81966-4 0  9997,2 46074  53.0562 205.4543 0001307 108.0651 252.0481 15.06397335305641
